{"type":"FeatureCollection","features":[{"type":"Feature","properties":{"osmRelationId":17318133,"osmName":"Anibong","barangaySlug":"anibong"},"geometry":{"type":"Polygon","coordinates":[[[121.468482,14.240434],[121.466445,14.241022],[121.465955,14.241105],[121.465543,14.240739],[121.465088,14.240107],[121.46508,14.239741],[121.464762,14.239433],[121.464428,14.239425],[121.464187,14.239566],[121.46405,14.239508],[121.463818,14.239292],[121.46338,14.239125],[121.463011,14.239067],[121.46278,14.238859],[121.462368,14.238793],[121.461947,14.239392],[121.461608,14.239316],[121.460978,14.238619],[121.460695,14.238551],[121.460615,14.238388],[121.460638,14.238059],[121.460814,14.236901],[121.460352,14.2367],[121.460719,14.236297],[121.46143,14.235412],[121.461544,14.234776],[121.461432,14.234247],[121.461125,14.233346],[121.460746,14.23285],[121.460445,14.2322],[121.46028,14.231471],[121.460318,14.230786],[121.460199,14.230073],[121.459941,14.229433],[121.459855,14.228926],[121.459872,14.228113],[121.459901,14.227425],[121.45992,14.226832],[121.460112,14.225606],[121.460745,14.22521],[121.460992,14.224815],[121.461047,14.224584],[121.461019,14.224108],[121.461157,14.223664],[121.461399,14.223359],[121.462076,14.222915],[121.462636,14.222489],[121.463181,14.222126],[121.463556,14.221685],[121.463662,14.221289],[121.463513,14.221124],[121.463234,14.22104],[121.462713,14.22098],[121.462226,14.220988],[121.461871,14.220849],[121.461489,14.220575],[121.461045,14.220406],[121.460434,14.22039],[121.459825,14.220458],[121.459157,14.220426],[121.458696,14.22012],[121.458419,14.219631],[121.458356,14.218975],[121.458497,14.218424],[121.458484,14.218136],[121.458615,14.217673],[121.458674,14.217088],[121.459266,14.216561],[121.459479,14.216162],[121.459534,14.215877],[121.459515,14.215529],[121.459383,14.215304],[121.458605,14.214888],[121.458498,14.214696],[121.458224,14.214524],[121.457908,14.214628],[121.457613,14.214433],[121.457653,14.213976],[121.457663,14.213832],[121.457682,14.213573],[121.457712,14.213328],[121.457749,14.21299],[121.457714,14.212558],[121.457723,14.212067],[121.457865,14.211797],[121.457833,14.211617],[121.457749,14.211505],[121.457605,14.211282],[121.457468,14.211253],[121.457216,14.211243],[121.457132,14.210915],[121.457167,14.210764],[121.457253,14.210645],[121.457433,14.210419],[121.457575,14.210047],[121.457835,14.209675],[121.45809,14.209173],[121.458195,14.209017],[121.458318,14.208988],[121.458466,14.208858],[121.458742,14.208773],[121.459367,14.208994],[121.459627,14.208999],[121.459925,14.209077],[121.460209,14.209069],[121.460539,14.208773],[121.460989,14.208331],[121.461075,14.208102],[121.461252,14.207826],[121.461451,14.207725],[121.46173,14.207566],[121.461861,14.207374],[121.461918,14.207244],[121.462014,14.207036],[121.462041,14.206815],[121.462011,14.206677],[121.46188,14.206599],[121.461593,14.206547],[121.461545,14.206178],[121.46177,14.206022],[121.462196,14.205897],[121.462768,14.20579],[121.46321,14.205528],[121.463422,14.205288],[121.463605,14.20514],[121.464007,14.204878],[121.464307,14.204927],[121.464584,14.204766],[121.46475,14.204597],[121.464908,14.204381],[121.465091,14.204225],[121.465144,14.204038],[121.465222,14.203851],[121.465512,14.203687],[121.465697,14.203291],[121.46585,14.202894],[121.465906,14.202566],[121.465879,14.202311],[121.465811,14.202069],[121.465828,14.201722],[121.46588,14.201514],[121.466027,14.201274],[121.46623,14.20117],[121.466429,14.201172],[121.466637,14.201239],[121.466852,14.201314],[121.467129,14.202631],[121.472584,14.228093],[121.468705,14.233077],[121.46906,14.234991],[121.468482,14.240434]]]}},{"type":"Feature","properties":{"osmRelationId":17317779,"osmName":"Uno","barangaySlug":"barangay-i"},"geometry":{"type":"Polygon","coordinates":[[[121.454789,14.272013],[121.45536,14.271992],[121.456248,14.271623],[121.456764,14.271333],[121.457045,14.271248],[121.457308,14.271246],[121.45779,14.271404],[121.458112,14.271509],[121.457532,14.27299],[121.457193,14.27431],[121.45709,14.275384],[121.457456,14.276504],[121.457597,14.276747],[121.456617,14.277015],[121.453476,14.277397],[121.453425,14.277088],[121.453332,14.27667],[121.45339,14.275495],[121.453439,14.274755],[121.453667,14.274191],[121.454078,14.27394],[121.454434,14.27401],[121.454456,14.2736],[121.454885,14.273642],[121.455102,14.273653],[121.455055,14.273229],[121.454981,14.272868],[121.454883,14.272488],[121.454817,14.272153],[121.454789,14.272013]]]}},{"type":"Feature","properties":{"osmRelationId":17317778,"osmName":"Dos","barangaySlug":"barangay-ii"},"geometry":{"type":"Polygon","coordinates":[[[121.44932,14.278993],[121.447001,14.27857],[121.447341,14.276314],[121.447788,14.27643],[121.448098,14.275249],[121.448265,14.275293],[121.448439,14.274734],[121.448626,14.274217],[121.448999,14.273362],[121.44902,14.273317],[121.448957,14.273281],[121.449017,14.273174],[121.449345,14.272218],[121.449366,14.272159],[121.449421,14.271959],[121.449569,14.271375],[121.450216,14.271319],[121.451514,14.271464],[121.452834,14.271683],[121.453503,14.271857],[121.453994,14.271979],[121.454676,14.272018],[121.454789,14.272013],[121.454817,14.272153],[121.454883,14.272488],[121.454981,14.272868],[121.455055,14.273229],[121.455102,14.273653],[121.454885,14.273642],[121.454456,14.2736],[121.454434,14.27401],[121.454078,14.27394],[121.453667,14.274191],[121.453439,14.274755],[121.45339,14.275495],[121.453332,14.27667],[121.453425,14.277088],[121.452968,14.277091],[121.45232,14.277096],[121.452249,14.277371],[121.45133,14.277012],[121.451098,14.277389],[121.451072,14.277585],[121.450747,14.277744],[121.450415,14.278091],[121.450045,14.278175],[121.449899,14.278377],[121.449604,14.278685],[121.44932,14.278993]]]}},{"type":"Feature","properties":{"osmRelationId":17318061,"osmName":"Biñan","barangaySlug":"binan"},"geometry":{"type":"Polygon","coordinates":[[[121.424677,14.25747],[121.429472,14.25865],[121.429323,14.25899],[121.431251,14.259591],[121.43137,14.258867],[121.43276,14.259085],[121.434815,14.259128],[121.436931,14.259167],[121.438087,14.258996],[121.438294,14.259063],[121.438271,14.259169],[121.438129,14.259798],[121.438122,14.260352],[121.438196,14.260939],[121.439302,14.261012],[121.439329,14.261092],[121.439474,14.261216],[121.439548,14.26133],[121.439593,14.261522],[121.439534,14.261671],[121.439418,14.261818],[121.439404,14.261915],[121.43925,14.262004],[121.439227,14.262095],[121.439144,14.262269],[121.439052,14.262383],[121.439086,14.26247],[121.439198,14.262504],[121.439317,14.262494],[121.43945,14.26246],[121.439525,14.262292],[121.439582,14.262249],[121.439691,14.262339],[121.439766,14.262318],[121.439887,14.262419],[121.439803,14.262554],[121.439843,14.262651],[121.439929,14.262701],[121.439984,14.262766],[121.439941,14.262824],[121.439848,14.262791],[121.43969,14.262994],[121.439589,14.263101],[121.439461,14.263122],[121.439387,14.263102],[121.439258,14.263212],[121.439194,14.26329],[121.439242,14.263477],[121.439265,14.263588],[121.439334,14.263582],[121.439422,14.263461],[121.439527,14.263411],[121.439634,14.263438],[121.439717,14.26351],[121.439909,14.263393],[121.440001,14.263422],[121.439977,14.263524],[121.439921,14.26365],[121.439911,14.263722],[121.439944,14.263749],[121.440019,14.263733],[121.440045,14.263809],[121.439999,14.263913],[121.440025,14.26394],[121.440152,14.263925],[121.440356,14.264048],[121.44043,14.264164],[121.440383,14.264273],[121.440302,14.264395],[121.440385,14.26458],[121.440466,14.264772],[121.44039,14.264907],[121.440455,14.265006],[121.440562,14.26499],[121.440675,14.265193],[121.44082,14.265269],[121.440842,14.2654],[121.440707,14.265682],[121.440809,14.265829],[121.440957,14.26595],[121.441045,14.266061],[121.441159,14.266218],[121.441195,14.266296],[121.441186,14.266342],[121.441083,14.266425],[121.440955,14.266543],[121.440825,14.266664],[121.440739,14.266774],[121.440686,14.266841],[121.440637,14.266971],[121.44061,14.267096],[121.440487,14.267221],[121.440358,14.267236],[121.440197,14.267345],[121.440042,14.267418],[121.440015,14.267543],[121.439999,14.267777],[121.440063,14.267959],[121.440235,14.268131],[121.440412,14.268313],[121.440326,14.268437],[121.440283,14.268505],[121.440299,14.268624],[121.440315,14.268817],[121.44024,14.268973],[121.440154,14.269191],[121.440122,14.269267],[121.440163,14.269461],[121.440154,14.26969],[121.440117,14.269914],[121.440122,14.270246],[121.44002,14.27048],[121.439924,14.27061],[121.439843,14.270751],[121.439731,14.270865],[121.439607,14.270865],[121.439532,14.270938],[121.439677,14.271172],[121.439607,14.27138],[121.439473,14.271577],[121.439441,14.271832],[121.439414,14.272045],[121.439296,14.272186],[121.439226,14.272305],[121.439226,14.272576],[121.439173,14.272654],[121.439066,14.272902],[121.438964,14.273132],[121.438744,14.273422],[121.43882,14.273617],[121.439023,14.273817],[121.439108,14.274062],[121.439457,14.274343],[121.439849,14.274426],[121.440047,14.274681],[121.440095,14.274889],[121.440101,14.275071],[121.44038,14.275217],[121.44061,14.275341],[121.441281,14.275471],[121.442,14.275783],[121.441968,14.276022],[121.442188,14.276204],[121.442391,14.276116],[121.442558,14.276132],[121.442601,14.276277],[121.442542,14.27635],[121.442488,14.276506],[121.442574,14.27662],[121.442767,14.276761],[121.44289,14.276911],[121.44296,14.277057],[121.442336,14.277181],[121.440162,14.276761],[121.43844,14.276461],[121.436015,14.27626],[121.431438,14.274739],[121.430151,14.274285],[121.430098,14.274265],[121.430066,14.274104],[121.429711,14.274015],[121.429849,14.273351],[121.430073,14.273411],[121.430339,14.272796],[121.430648,14.272895],[121.430767,14.271888],[121.430605,14.270895],[121.430439,14.270091],[121.430412,14.269413],[121.430323,14.269144],[121.430268,14.268823],[121.430154,14.268564],[121.429968,14.268387],[121.429897,14.268196],[121.429984,14.267953],[121.429876,14.267772],[121.429582,14.2675],[121.429274,14.267419],[121.429095,14.267369],[121.429119,14.267104],[121.429297,14.266897],[121.429073,14.266662],[121.428471,14.266506],[121.428293,14.266144],[121.42829,14.265842],[121.428391,14.26557],[121.428103,14.264676],[121.427296,14.264177],[121.427214,14.263959],[121.427285,14.263915],[121.42714,14.26359],[121.426609,14.263602],[121.426359,14.263407],[121.426086,14.262879],[121.425877,14.262482],[121.426011,14.262385],[121.426183,14.262183],[121.426258,14.261632],[121.426153,14.261047],[121.42593,14.260439],[121.425756,14.259628],[121.425448,14.258874],[121.425075,14.258406],[121.424675,14.257803],[121.424677,14.25747]]]}},{"type":"Feature","properties":{"osmRelationId":17321110,"osmName":"Buboy","barangaySlug":"buboy"},"geometry":{"type":"Polygon","coordinates":[[[121.419421,14.24259],[121.419314,14.242201],[121.419208,14.241899],[121.419218,14.241596],[121.419355,14.241044],[121.41926,14.240719],[121.41907,14.240376],[121.417977,14.239585],[121.417268,14.2387],[121.417537,14.237943],[121.41799,14.237597],[121.41806,14.237085],[121.417718,14.236976],[121.417828,14.23651],[121.418048,14.236194],[121.417947,14.235891],[121.418506,14.234983],[121.418226,14.234547],[121.418297,14.234008],[121.41876,14.233527],[121.418902,14.232848],[121.418266,14.232546],[121.418066,14.232323],[121.418404,14.231763],[121.418721,14.23067],[121.418963,14.230554],[121.419263,14.231088],[121.41955,14.231295],[121.41982,14.23107],[121.420216,14.229771],[121.420524,14.228631],[121.422338,14.228851],[121.426227,14.229331],[121.429249,14.230422],[121.431746,14.230956],[121.433874,14.231095],[121.433837,14.231643],[121.435119,14.231895],[121.436183,14.232249],[121.436138,14.232394],[121.435884,14.232471],[121.43577,14.232734],[121.43577,14.232888],[121.435889,14.233036],[121.435957,14.233179],[121.435906,14.233376],[121.435663,14.233623],[121.435482,14.233601],[121.43547,14.233804],[121.435465,14.233942],[121.43534,14.234007],[121.435312,14.234101],[121.43543,14.23427],[121.435565,14.234462],[121.435726,14.234559],[121.435962,14.234709],[121.436131,14.234733],[121.436341,14.234741],[121.43678,14.234618],[121.436915,14.234702],[121.43677,14.234954],[121.436667,14.235291],[121.436571,14.235405],[121.436587,14.235604],[121.436702,14.235972],[121.436753,14.236112],[121.436721,14.236245],[121.436582,14.236395],[121.436429,14.236559],[121.43615,14.236775],[121.435992,14.236886],[121.435976,14.23708],[121.435938,14.237292],[121.436035,14.237366],[121.436174,14.237554],[121.436311,14.237782],[121.436512,14.238068],[121.436601,14.23824],[121.43668,14.238358],[121.435051,14.238198],[121.435051,14.237987],[121.433491,14.237728],[121.433463,14.237489],[121.431612,14.23719],[121.431695,14.236875],[121.431537,14.236818],[121.431473,14.236914],[121.430443,14.236579],[121.430256,14.2372],[121.430019,14.23806],[121.428137,14.23753],[121.427853,14.2379],[121.42668,14.237482],[121.426454,14.237801],[121.42518,14.237345],[121.425038,14.237768],[121.424025,14.237433],[121.423781,14.238174],[121.423424,14.23869],[121.422937,14.238492],[121.422326,14.239453],[121.422429,14.239501],[121.422191,14.240176],[121.421976,14.240489],[121.421687,14.240731],[121.421512,14.240785],[121.421229,14.241197],[121.421172,14.241708],[121.421144,14.242015],[121.420996,14.24235],[121.421087,14.242465],[121.421008,14.242591],[121.419421,14.24259]]]}},{"type":"Feature","properties":{"osmRelationId":17321109,"osmName":"Cabanbanan","barangaySlug":"cabanbanan"},"geometry":{"type":"Polygon","coordinates":[[[121.436801,14.250714],[121.436234,14.250813],[121.436184,14.250659],[121.435357,14.250842],[121.434633,14.250896],[121.434611,14.250769],[121.433872,14.250783],[121.433792,14.250737],[121.433601,14.25041],[121.433587,14.250356],[121.43361,14.25021],[121.431876,14.249733],[121.431973,14.249175],[121.430756,14.24912],[121.430886,14.24828],[121.431401,14.248335],[121.431554,14.247797],[121.43156,14.247424],[121.431186,14.247331],[121.431147,14.247676],[121.430977,14.247863],[121.430824,14.247786],[121.430773,14.247879],[121.43058,14.247885],[121.430416,14.24839],[121.430224,14.248373],[121.429918,14.248533],[121.429669,14.248884],[121.429159,14.248835],[121.429182,14.24852],[121.428502,14.248307],[121.428434,14.248727],[121.427134,14.248405],[121.425277,14.247966],[121.423803,14.247756],[121.423343,14.248902],[121.422888,14.248797],[121.422388,14.248521],[121.421779,14.247929],[121.42102,14.246993],[121.420712,14.246435],[121.420381,14.245499],[121.42003,14.244231],[121.419515,14.242932],[121.419421,14.24259],[121.421008,14.242591],[121.421087,14.242465],[121.420996,14.24235],[121.421144,14.242015],[121.421172,14.241708],[121.421229,14.241197],[121.421512,14.240785],[121.421687,14.240731],[121.421976,14.240489],[121.422191,14.240176],[121.422429,14.239501],[121.422326,14.239453],[121.422937,14.238492],[121.423424,14.23869],[121.423781,14.238174],[121.424025,14.237433],[121.425038,14.237768],[121.42518,14.237345],[121.426454,14.237801],[121.42668,14.237482],[121.427853,14.2379],[121.428137,14.23753],[121.430019,14.23806],[121.430256,14.2372],[121.430443,14.236579],[121.431473,14.236914],[121.431537,14.236818],[121.431695,14.236875],[121.431612,14.23719],[121.433463,14.237489],[121.433491,14.237728],[121.435051,14.237987],[121.435051,14.238198],[121.43668,14.238358],[121.436719,14.238417],[121.436791,14.238565],[121.436799,14.23869],[121.436807,14.238862],[121.436778,14.23896],[121.436748,14.23906],[121.436764,14.239185],[121.43667,14.239319],[121.436732,14.239505],[121.436724,14.239591],[121.436611,14.239773],[121.43671,14.239936],[121.436797,14.240086],[121.436818,14.240237],[121.436898,14.24045],[121.436973,14.24067],[121.436997,14.240761],[121.43697,14.240875],[121.437011,14.241092],[121.437113,14.241351],[121.437156,14.241578],[121.437333,14.241794],[121.43737,14.241894],[121.437314,14.242002],[121.43733,14.242176],[121.437322,14.24238],[121.437147,14.242471],[121.437078,14.242626],[121.437099,14.24302],[121.436941,14.243255],[121.436917,14.243479],[121.437038,14.243648],[121.437255,14.243876],[121.437652,14.244084],[121.437912,14.244162],[121.438167,14.244097],[121.438371,14.244084],[121.438679,14.244157],[121.438956,14.24411],[121.439213,14.244077],[121.439278,14.244207],[121.439277,14.244465],[121.439361,14.244628],[121.439573,14.244742],[121.439535,14.244942],[121.43931,14.245135],[121.438918,14.245447],[121.438693,14.245564],[121.438462,14.245673],[121.43842,14.245767],[121.43835,14.245922],[121.438336,14.246223],[121.438108,14.246492],[121.437931,14.246639],[121.437867,14.24683],[121.437858,14.247078],[121.437829,14.247191],[121.437679,14.247194],[121.43752,14.247281],[121.437351,14.247429],[121.437118,14.247569],[121.437084,14.247734],[121.437132,14.247875],[121.437386,14.248006],[121.437338,14.248105],[121.437169,14.248144],[121.436885,14.248146],[121.436708,14.248191],[121.436703,14.24835],[121.436738,14.248616],[121.436624,14.248646],[121.436467,14.248803],[121.436456,14.248925],[121.436534,14.249151],[121.436447,14.249288],[121.436365,14.249401],[121.436362,14.249593],[121.436378,14.24978],[121.436459,14.249871],[121.436547,14.250019],[121.436563,14.250133],[121.436512,14.250294],[121.436582,14.250451],[121.436703,14.250571],[121.436783,14.250675],[121.436801,14.250714]]]}},{"type":"Feature","properties":{"osmRelationId":17318175,"osmName":"Calusiche","barangaySlug":"calusiche"},"geometry":{"type":"Polygon","coordinates":[[[121.438271,14.259169],[121.438486,14.259241],[121.438583,14.25883],[121.438693,14.258638],[121.43858,14.258599],[121.438549,14.25855],[121.438593,14.258493],[121.438724,14.258473],[121.438878,14.258443],[121.439172,14.258146],[121.439207,14.258019],[121.439132,14.257885],[121.438905,14.257748],[121.438776,14.257654],[121.438794,14.257524],[121.438923,14.257445],[121.439107,14.257389],[121.439321,14.257478],[121.439458,14.257509],[121.439568,14.257424],[121.439548,14.25732],[121.439162,14.257041],[121.438947,14.256999],[121.438819,14.256823],[121.438626,14.25675],[121.438357,14.256833],[121.438171,14.256902],[121.438132,14.256916],[121.437853,14.256947],[121.437681,14.256823],[121.437606,14.25675],[121.437445,14.256469],[121.437317,14.25624],[121.437199,14.256084],[121.437209,14.255845],[121.437251,14.255804],[121.437295,14.255762],[121.437445,14.255762],[121.437799,14.255679],[121.437993,14.255658],[121.438239,14.255772],[121.4384,14.255668],[121.438272,14.25546],[121.438304,14.25519],[121.438475,14.255013],[121.438744,14.255065],[121.438894,14.255065],[121.438808,14.254795],[121.438593,14.254628],[121.438607,14.254568],[121.438647,14.254466],[121.438759,14.254295],[121.43884,14.254148],[121.438848,14.254111],[121.438856,14.253987],[121.438832,14.253871],[121.438854,14.253737],[121.438958,14.253645],[121.43921,14.253523],[121.439269,14.253408],[121.439245,14.253277],[121.439248,14.253169],[121.43916,14.253116],[121.438956,14.253126],[121.4388,14.253209],[121.438575,14.253246],[121.43835,14.25335],[121.438122,14.253469],[121.438065,14.253503],[121.438006,14.253355],[121.43792,14.253205],[121.437754,14.253092],[121.437622,14.253016],[121.437671,14.252896],[121.437805,14.252622],[121.437858,14.252524],[121.437966,14.252372],[121.438151,14.252234],[121.438277,14.251991],[121.438373,14.251903],[121.438459,14.251766],[121.43844,14.251661],[121.438309,14.251592],[121.438057,14.251584],[121.437904,14.251574],[121.437885,14.251452],[121.437987,14.251279],[121.437993,14.251093],[121.437899,14.250987],[121.437859,14.250966],[121.437556,14.251098],[121.43733,14.251239],[121.437177,14.251236],[121.436923,14.250981],[121.436801,14.250714],[121.436783,14.250675],[121.436703,14.250571],[121.436582,14.250451],[121.436512,14.250294],[121.436563,14.250133],[121.436547,14.250019],[121.436459,14.249871],[121.436378,14.24978],[121.436362,14.249593],[121.436365,14.249401],[121.436447,14.249288],[121.436534,14.249151],[121.436456,14.248925],[121.436467,14.248803],[121.436624,14.248646],[121.436738,14.248616],[121.436703,14.24835],[121.436708,14.248191],[121.436885,14.248146],[121.437169,14.248144],[121.437338,14.248105],[121.437386,14.248006],[121.437132,14.247875],[121.437084,14.247734],[121.437118,14.247569],[121.437351,14.247429],[121.43752,14.247281],[121.437679,14.247194],[121.437829,14.247191],[121.437858,14.247078],[121.437867,14.24683],[121.437931,14.246639],[121.438108,14.246492],[121.438336,14.246223],[121.43835,14.245922],[121.43842,14.245767],[121.4392,14.246028],[121.439121,14.24656],[121.441481,14.246951],[121.44161,14.247508],[121.442308,14.247605],[121.442552,14.247662],[121.442659,14.247488],[121.442809,14.247545],[121.443209,14.247646],[121.443446,14.247832],[121.44356,14.248021],[121.443713,14.24834],[121.44358,14.248636],[121.444438,14.248917],[121.446096,14.249346],[121.44622,14.249554],[121.446747,14.249806],[121.447775,14.249953],[121.447774,14.249783],[121.447913,14.249473],[121.450895,14.250399],[121.452444,14.25089],[121.453298,14.251396],[121.453263,14.251437],[121.451696,14.253247],[121.450945,14.254401],[121.450098,14.2562],[121.449885,14.256791],[121.44924,14.258581],[121.449068,14.260359],[121.448746,14.261472],[121.448194,14.262626],[121.446457,14.26197],[121.445946,14.261776],[121.444974,14.261505],[121.444899,14.26149],[121.443421,14.261099],[121.442934,14.260948],[121.442739,14.261328],[121.442973,14.261619],[121.443482,14.261943],[121.443198,14.262631],[121.442907,14.262551],[121.442944,14.262776],[121.442377,14.263884],[121.441121,14.263297],[121.441218,14.262949],[121.441233,14.262276],[121.440695,14.261639],[121.440852,14.261168],[121.439856,14.26081],[121.439778,14.261027],[121.439696,14.261044],[121.439468,14.260879],[121.439371,14.260896],[121.439302,14.261012],[121.438196,14.260939],[121.438122,14.260352],[121.438129,14.259798],[121.438271,14.259169]]]}},{"type":"Feature","properties":{"osmRelationId":17318176,"osmName":"Dingin","barangaySlug":"dingin"},"geometry":{"type":"Polygon","coordinates":[[[121.442659,14.247488],[121.442656,14.247364],[121.443123,14.246097],[121.443063,14.246003],[121.443003,14.245698],[121.443145,14.245354],[121.443739,14.244884],[121.44409,14.24384],[121.444627,14.24395],[121.444744,14.243424],[121.444471,14.24327],[121.444536,14.242846],[121.445272,14.242726],[121.445656,14.241539],[121.44591,14.241324],[121.446203,14.240675],[121.446047,14.240505],[121.445858,14.240461],[121.445975,14.23995],[121.445819,14.239616],[121.446138,14.238115],[121.446445,14.236128],[121.447728,14.236513],[121.447988,14.236689],[121.448473,14.236958],[121.449234,14.237196],[121.449338,14.23698],[121.45009,14.237158],[121.451171,14.237586],[121.45167,14.237674],[121.452489,14.237744],[121.45319,14.237928],[121.453796,14.238313],[121.45363,14.239159],[121.454908,14.239564],[121.455081,14.23964],[121.455253,14.239713],[121.455395,14.239761],[121.458951,14.240228],[121.459078,14.241559],[121.458531,14.244335],[121.457887,14.246571],[121.457243,14.247548],[121.455956,14.248432],[121.455366,14.248983],[121.453298,14.251396],[121.452444,14.25089],[121.450895,14.250399],[121.447913,14.249473],[121.447774,14.249783],[121.447775,14.249953],[121.446747,14.249806],[121.44622,14.249554],[121.446096,14.249346],[121.444438,14.248917],[121.44358,14.248636],[121.443713,14.24834],[121.44356,14.248021],[121.443446,14.247832],[121.443209,14.247646],[121.442809,14.247545],[121.442659,14.247488]]]}},{"type":"Feature","properties":{"osmRelationId":17318132,"osmName":"Lambac","barangaySlug":"lambac"},"geometry":{"type":"Polygon","coordinates":[[[121.460352,14.2367],[121.460814,14.236901],[121.460638,14.238059],[121.460615,14.238388],[121.460695,14.238551],[121.460978,14.238619],[121.461608,14.239316],[121.461947,14.239392],[121.462368,14.238793],[121.46278,14.238859],[121.463011,14.239067],[121.46338,14.239125],[121.463818,14.239292],[121.46405,14.239508],[121.464187,14.239566],[121.464428,14.239425],[121.464762,14.239433],[121.46508,14.239741],[121.465088,14.240107],[121.465543,14.240739],[121.465955,14.241105],[121.466445,14.241022],[121.468482,14.240434],[121.468094,14.244095],[121.468899,14.247761],[121.468362,14.252586],[121.470937,14.256402],[121.471644,14.258804],[121.471184,14.258965],[121.4703,14.259141],[121.465611,14.259558],[121.465079,14.259426],[121.463935,14.258922],[121.460913,14.258863],[121.458388,14.25916],[121.45699,14.258719],[121.45699,14.258574],[121.45368,14.257775],[121.452123,14.257351],[121.449885,14.256791],[121.450098,14.2562],[121.450945,14.254401],[121.451696,14.253247],[121.453263,14.251437],[121.453298,14.251396],[121.455366,14.248983],[121.455956,14.248432],[121.457243,14.247548],[121.457887,14.246571],[121.458531,14.244335],[121.459078,14.241559],[121.458951,14.240228],[121.45898,14.239331],[121.45909,14.238434],[121.459322,14.237891],[121.459899,14.237273],[121.460352,14.2367]]]}},{"type":"Feature","properties":{"osmRelationId":17318177,"osmName":"Layugan","barangaySlug":"layugan"},"geometry":{"type":"Polygon","coordinates":[[[121.442154,14.234637],[121.443142,14.235114],[121.444353,14.235453],[121.446445,14.236128],[121.446138,14.238115],[121.445819,14.239616],[121.445975,14.23995],[121.445858,14.240461],[121.446047,14.240505],[121.446203,14.240675],[121.44591,14.241324],[121.445656,14.241539],[121.445272,14.242726],[121.444536,14.242846],[121.444471,14.24327],[121.444744,14.243424],[121.444627,14.24395],[121.44409,14.24384],[121.443739,14.244884],[121.443145,14.245354],[121.443003,14.245698],[121.443063,14.246003],[121.443123,14.246097],[121.442656,14.247364],[121.442659,14.247488],[121.442552,14.247662],[121.442308,14.247605],[121.44161,14.247508],[121.441481,14.246951],[121.439121,14.24656],[121.4392,14.246028],[121.43842,14.245767],[121.438462,14.245673],[121.438693,14.245564],[121.438918,14.245447],[121.43931,14.245135],[121.439535,14.244942],[121.439573,14.244742],[121.439361,14.244628],[121.439277,14.244465],[121.439278,14.244207],[121.439213,14.244077],[121.438956,14.24411],[121.438679,14.244157],[121.438371,14.244084],[121.438167,14.244097],[121.437912,14.244162],[121.437652,14.244084],[121.437255,14.243876],[121.437038,14.243648],[121.436917,14.243479],[121.436941,14.243255],[121.437099,14.24302],[121.437078,14.242626],[121.437147,14.242471],[121.437322,14.24238],[121.43733,14.242176],[121.437314,14.242002],[121.43737,14.241894],[121.437333,14.241794],[121.437156,14.241578],[121.437113,14.241351],[121.437011,14.241092],[121.43697,14.240875],[121.436997,14.240761],[121.436973,14.24067],[121.436898,14.24045],[121.436818,14.240237],[121.436797,14.240086],[121.43671,14.239936],[121.436611,14.239773],[121.436724,14.239591],[121.436732,14.239505],[121.43667,14.239319],[121.436764,14.239185],[121.436748,14.23906],[121.436778,14.23896],[121.436807,14.238862],[121.436799,14.23869],[121.436791,14.238565],[121.436719,14.238417],[121.43668,14.238358],[121.436601,14.23824],[121.436512,14.238068],[121.436311,14.237782],[121.436174,14.237554],[121.436035,14.237366],[121.435938,14.237292],[121.435976,14.23708],[121.435992,14.236886],[121.43615,14.236775],[121.436429,14.236559],[121.436582,14.236395],[121.436721,14.236245],[121.436753,14.236112],[121.436702,14.235972],[121.436587,14.235604],[121.436571,14.235405],[121.436667,14.235291],[121.43677,14.234954],[121.436915,14.234702],[121.43678,14.234618],[121.436341,14.234741],[121.436131,14.234733],[121.435962,14.234709],[121.435726,14.234559],[121.435565,14.234462],[121.43543,14.23427],[121.435312,14.234101],[121.43534,14.234007],[121.435465,14.233942],[121.43547,14.233804],[121.435482,14.233601],[121.435663,14.233623],[121.435906,14.233376],[121.435957,14.233179],[121.435889,14.233036],[121.43577,14.232888],[121.43577,14.232734],[121.435884,14.232471],[121.436138,14.232394],[121.436183,14.232249],[121.439078,14.23315],[121.442154,14.234637]]]}},{"type":"Feature","properties":{"osmRelationId":17318102,"osmName":"Magdapio","barangaySlug":"magdapio"},"geometry":{"type":"Polygon","coordinates":[[[121.472677,14.267037],[121.472661,14.268206],[121.471684,14.269561],[121.470571,14.271315],[121.469555,14.272384],[121.468764,14.27301],[121.467825,14.273053],[121.467068,14.272964],[121.465987,14.272878],[121.464859,14.2734],[121.463754,14.274064],[121.462789,14.274288],[121.462406,14.274272],[121.461858,14.274067],[121.461728,14.274648],[121.461052,14.275362],[121.461066,14.276142],[121.460905,14.276224],[121.46095,14.276751],[121.461118,14.277116],[121.458879,14.278556],[121.458067,14.27756],[121.457597,14.276747],[121.457456,14.276504],[121.45709,14.275384],[121.457193,14.27431],[121.457532,14.27299],[121.458112,14.271509],[121.458685,14.270445],[121.459395,14.269501],[121.460316,14.268469],[121.461659,14.267567],[121.462832,14.267168],[121.46386,14.266765],[121.465108,14.266137],[121.466562,14.265674],[121.468877,14.265538],[121.470529,14.265445],[121.472193,14.267066],[121.472677,14.267037]]]}},{"type":"Feature","properties":{"osmRelationId":17318103,"osmName":"Maulawin","barangaySlug":"maulawin"},"geometry":{"type":"Polygon","coordinates":[[[121.448194,14.262626],[121.448746,14.261472],[121.449068,14.260359],[121.44924,14.258581],[121.449885,14.256791],[121.452123,14.257351],[121.45368,14.257775],[121.453078,14.259391],[121.45264,14.259338],[121.452602,14.259748],[121.45258,14.259983],[121.452645,14.26038],[121.452546,14.260929],[121.452324,14.261034],[121.452344,14.261312],[121.45258,14.261392],[121.45241,14.261924],[121.452522,14.262057],[121.452513,14.262186],[121.452445,14.262444],[121.452646,14.262498],[121.452659,14.262768],[121.452561,14.262914],[121.451728,14.263117],[121.451689,14.26328],[121.451737,14.263492],[121.451526,14.263529],[121.451423,14.263662],[121.451479,14.263829],[121.451492,14.263953],[121.451363,14.264003],[121.451286,14.264107],[121.451325,14.264257],[121.451325,14.264419],[121.451458,14.264486],[121.451685,14.264494],[121.4517,14.264622],[121.451902,14.264832],[121.45182,14.265013],[121.452007,14.265151],[121.451939,14.265455],[121.451895,14.265774],[121.452014,14.265911],[121.452246,14.265933],[121.452291,14.266063],[121.452963,14.266165],[121.453381,14.266266],[121.453546,14.266454],[121.453785,14.266375],[121.453934,14.266599],[121.453927,14.267063],[121.454269,14.267301],[121.454645,14.267687],[121.454748,14.267679],[121.454873,14.267677],[121.455041,14.267731],[121.455172,14.267854],[121.455245,14.267979],[121.455441,14.268069],[121.455655,14.268112],[121.455792,14.268176],[121.45591,14.268264],[121.455956,14.268357],[121.456029,14.268515],[121.456126,14.268847],[121.456149,14.269117],[121.456174,14.269245],[121.456486,14.269291],[121.456834,14.269328],[121.457145,14.26937],[121.457296,14.269473],[121.457317,14.269561],[121.457221,14.269769],[121.45718,14.269862],[121.457055,14.270184],[121.456952,14.270461],[121.456965,14.270907],[121.457045,14.271248],[121.456764,14.271333],[121.456248,14.271623],[121.45536,14.271992],[121.454789,14.272013],[121.454676,14.272018],[121.453994,14.271979],[121.453503,14.271857],[121.452834,14.271683],[121.451514,14.271464],[121.450216,14.271319],[121.449569,14.271375],[121.448907,14.271433],[121.447587,14.271381],[121.447319,14.270996],[121.447158,14.270487],[121.44718,14.269291],[121.446976,14.26716],[121.446793,14.26612],[121.446804,14.265413],[121.447158,14.264591],[121.447727,14.263604],[121.448194,14.262626]]]}},{"type":"Feature","properties":{"osmRelationId":17318104,"osmName":"Pinagsanjan","barangaySlug":"pinagsanjan"},"geometry":{"type":"Polygon","coordinates":[[[121.458112,14.271509],[121.45779,14.271404],[121.457308,14.271246],[121.457045,14.271248],[121.456965,14.270907],[121.456952,14.270461],[121.457055,14.270184],[121.45718,14.269862],[121.457221,14.269769],[121.457317,14.269561],[121.457296,14.269473],[121.457145,14.26937],[121.456834,14.269328],[121.456486,14.269291],[121.456174,14.269245],[121.456149,14.269117],[121.456126,14.268847],[121.456029,14.268515],[121.455956,14.268357],[121.45591,14.268264],[121.455792,14.268176],[121.455655,14.268112],[121.455441,14.268069],[121.455245,14.267979],[121.455172,14.267854],[121.455041,14.267731],[121.454873,14.267677],[121.454748,14.267679],[121.454645,14.267687],[121.454269,14.267301],[121.453927,14.267063],[121.453934,14.266599],[121.453785,14.266375],[121.453546,14.266454],[121.453381,14.266266],[121.452963,14.266165],[121.452291,14.266063],[121.452246,14.265933],[121.452014,14.265911],[121.451895,14.265774],[121.451939,14.265455],[121.452007,14.265151],[121.45182,14.265013],[121.451902,14.264832],[121.4517,14.264622],[121.451685,14.264494],[121.451458,14.264486],[121.451325,14.264419],[121.451325,14.264257],[121.451286,14.264107],[121.451363,14.264003],[121.451492,14.263953],[121.451479,14.263829],[121.451423,14.263662],[121.451526,14.263529],[121.451737,14.263492],[121.451689,14.26328],[121.451728,14.263117],[121.452561,14.262914],[121.452659,14.262768],[121.452646,14.262498],[121.452445,14.262444],[121.452513,14.262186],[121.452522,14.262057],[121.45241,14.261924],[121.45258,14.261392],[121.452344,14.261312],[121.452324,14.261034],[121.452546,14.260929],[121.452645,14.26038],[121.45258,14.259983],[121.452602,14.259748],[121.45264,14.259338],[121.453078,14.259391],[121.45368,14.257775],[121.45699,14.258574],[121.45699,14.258719],[121.458388,14.25916],[121.460913,14.258863],[121.463935,14.258922],[121.465079,14.259426],[121.465611,14.259558],[121.4703,14.259141],[121.471184,14.258965],[121.471644,14.258804],[121.472042,14.260156],[121.471549,14.262891],[121.471198,14.263569],[121.472257,14.264419],[121.473641,14.26611],[121.472677,14.267037],[121.472193,14.267066],[121.470529,14.265445],[121.468877,14.265538],[121.466562,14.265674],[121.465108,14.266137],[121.46386,14.266765],[121.462832,14.267168],[121.461659,14.267567],[121.460316,14.268469],[121.459395,14.269501],[121.458685,14.270445],[121.458112,14.271509]]]}},{"type":"Feature","properties":{"osmRelationId":17321108,"osmName":"Sabang","barangaySlug":"sabang"},"geometry":{"type":"Polygon","coordinates":[[[121.424677,14.25747],[121.424681,14.256992],[121.424603,14.256391],[121.424697,14.255469],[121.424793,14.254317],[121.424807,14.253724],[121.424887,14.252523],[121.425013,14.251949],[121.425468,14.250959],[121.425493,14.25071],[121.42554,14.250339],[121.425522,14.250181],[121.425276,14.24967],[121.42468,14.249123],[121.424242,14.249017],[121.423774,14.249001],[121.423343,14.248902],[121.423803,14.247756],[121.425277,14.247966],[121.427134,14.248405],[121.428434,14.248727],[121.428502,14.248307],[121.429182,14.24852],[121.429159,14.248835],[121.429669,14.248884],[121.429918,14.248533],[121.430224,14.248373],[121.430416,14.24839],[121.43058,14.247885],[121.430773,14.247879],[121.430824,14.247786],[121.430977,14.247863],[121.431147,14.247676],[121.431186,14.247331],[121.43156,14.247424],[121.431554,14.247797],[121.431401,14.248335],[121.430886,14.24828],[121.430756,14.24912],[121.431973,14.249175],[121.431876,14.249733],[121.43361,14.25021],[121.433587,14.250356],[121.433601,14.25041],[121.433792,14.250737],[121.433872,14.250783],[121.434611,14.250769],[121.434633,14.250896],[121.435357,14.250842],[121.436184,14.250659],[121.436234,14.250813],[121.436801,14.250714],[121.436923,14.250981],[121.437177,14.251236],[121.43733,14.251239],[121.437556,14.251098],[121.437859,14.250966],[121.437899,14.250987],[121.437993,14.251093],[121.437987,14.251279],[121.437885,14.251452],[121.437904,14.251574],[121.438057,14.251584],[121.438309,14.251592],[121.43844,14.251661],[121.438459,14.251766],[121.438373,14.251903],[121.438277,14.251991],[121.438151,14.252234],[121.437966,14.252372],[121.437858,14.252524],[121.437805,14.252622],[121.437671,14.252896],[121.437622,14.253016],[121.437754,14.253092],[121.43792,14.253205],[121.438006,14.253355],[121.438065,14.253503],[121.438122,14.253469],[121.43835,14.25335],[121.438575,14.253246],[121.4388,14.253209],[121.438956,14.253126],[121.43916,14.253116],[121.439248,14.253169],[121.439245,14.253277],[121.439269,14.253408],[121.43921,14.253523],[121.438958,14.253645],[121.438854,14.253737],[121.438832,14.253871],[121.438856,14.253987],[121.438848,14.254111],[121.43884,14.254148],[121.438759,14.254295],[121.438647,14.254466],[121.438607,14.254568],[121.438593,14.254628],[121.438808,14.254795],[121.438894,14.255065],[121.438744,14.255065],[121.438475,14.255013],[121.438304,14.25519],[121.438272,14.25546],[121.4384,14.255668],[121.438239,14.255772],[121.437993,14.255658],[121.437799,14.255679],[121.437445,14.255762],[121.437295,14.255762],[121.437251,14.255804],[121.437209,14.255845],[121.437199,14.256084],[121.437317,14.25624],[121.437445,14.256469],[121.437606,14.25675],[121.437681,14.256823],[121.437853,14.256947],[121.438132,14.256916],[121.438171,14.256902],[121.438357,14.256833],[121.438626,14.25675],[121.438819,14.256823],[121.438947,14.256999],[121.439162,14.257041],[121.439548,14.25732],[121.439568,14.257424],[121.439458,14.257509],[121.439321,14.257478],[121.439107,14.257389],[121.438923,14.257445],[121.438794,14.257524],[121.438776,14.257654],[121.438905,14.257748],[121.439132,14.257885],[121.439207,14.258019],[121.439172,14.258146],[121.438878,14.258443],[121.438724,14.258473],[121.438593,14.258493],[121.438549,14.25855],[121.43858,14.258599],[121.438693,14.258638],[121.438583,14.25883],[121.438486,14.259241],[121.438271,14.259169],[121.438294,14.259063],[121.438087,14.258996],[121.436931,14.259167],[121.434815,14.259128],[121.43276,14.259085],[121.43137,14.258867],[121.431251,14.259591],[121.429323,14.25899],[121.429472,14.25865],[121.424677,14.25747]]]}},{"type":"Feature","properties":{"osmRelationId":17318060,"osmName":"Sampaloc","barangaySlug":"sampaloc"},"geometry":{"type":"Polygon","coordinates":[[[121.444816,14.277483],[121.44487,14.277254],[121.444521,14.277161],[121.444414,14.27701],[121.444028,14.27687],[121.443861,14.276724],[121.443813,14.276729],[121.443765,14.27688],[121.443625,14.276953],[121.443336,14.277005],[121.443153,14.277031],[121.44296,14.277057],[121.44289,14.276911],[121.442767,14.276761],[121.442574,14.27662],[121.442488,14.276506],[121.442542,14.27635],[121.442601,14.276277],[121.442558,14.276132],[121.442391,14.276116],[121.442188,14.276204],[121.441968,14.276022],[121.442,14.275783],[121.441281,14.275471],[121.44061,14.275341],[121.44038,14.275217],[121.440101,14.275071],[121.440095,14.274889],[121.440047,14.274681],[121.439849,14.274426],[121.439457,14.274343],[121.439108,14.274062],[121.439023,14.273817],[121.43882,14.273617],[121.438744,14.273422],[121.438964,14.273132],[121.439066,14.272902],[121.439173,14.272654],[121.439226,14.272576],[121.439226,14.272305],[121.439296,14.272186],[121.439414,14.272045],[121.439441,14.271832],[121.439473,14.271577],[121.439607,14.27138],[121.439677,14.271172],[121.439532,14.270938],[121.439607,14.270865],[121.439731,14.270865],[121.439843,14.270751],[121.439924,14.27061],[121.44002,14.27048],[121.440122,14.270246],[121.440117,14.269914],[121.440154,14.26969],[121.440163,14.269461],[121.440122,14.269267],[121.440154,14.269191],[121.44024,14.268973],[121.440315,14.268817],[121.440299,14.268624],[121.440283,14.268505],[121.440326,14.268437],[121.440412,14.268313],[121.440235,14.268131],[121.440063,14.267959],[121.439999,14.267777],[121.440015,14.267543],[121.440042,14.267418],[121.440197,14.267345],[121.440358,14.267236],[121.440487,14.267221],[121.44061,14.267096],[121.440637,14.266971],[121.440686,14.266841],[121.440739,14.266774],[121.440825,14.266664],[121.440955,14.266543],[121.441083,14.266425],[121.441186,14.266342],[121.441195,14.266296],[121.441159,14.266218],[121.441045,14.266061],[121.440957,14.26595],[121.440809,14.265829],[121.440707,14.265682],[121.440842,14.2654],[121.44082,14.265269],[121.440675,14.265193],[121.440562,14.26499],[121.440455,14.265006],[121.44039,14.264907],[121.440466,14.264772],[121.440385,14.26458],[121.440302,14.264395],[121.440383,14.264273],[121.44043,14.264164],[121.440356,14.264048],[121.440152,14.263925],[121.440025,14.26394],[121.439999,14.263913],[121.440045,14.263809],[121.440019,14.263733],[121.439944,14.263749],[121.439911,14.263722],[121.439921,14.26365],[121.439977,14.263524],[121.440001,14.263422],[121.439909,14.263393],[121.439717,14.26351],[121.439634,14.263438],[121.439527,14.263411],[121.439422,14.263461],[121.439334,14.263582],[121.439265,14.263588],[121.439242,14.263477],[121.439194,14.26329],[121.439258,14.263212],[121.439387,14.263102],[121.439461,14.263122],[121.439589,14.263101],[121.43969,14.262994],[121.439848,14.262791],[121.439941,14.262824],[121.439984,14.262766],[121.439929,14.262701],[121.439843,14.262651],[121.439803,14.262554],[121.439887,14.262419],[121.439766,14.262318],[121.439691,14.262339],[121.439582,14.262249],[121.439525,14.262292],[121.43945,14.26246],[121.439317,14.262494],[121.439198,14.262504],[121.439086,14.26247],[121.439052,14.262383],[121.439144,14.262269],[121.439227,14.262095],[121.43925,14.262004],[121.439404,14.261915],[121.439418,14.261818],[121.439534,14.261671],[121.439593,14.261522],[121.439548,14.26133],[121.439474,14.261216],[121.439329,14.261092],[121.439302,14.261012],[121.439371,14.260896],[121.439468,14.260879],[121.439696,14.261044],[121.439778,14.261027],[121.439856,14.26081],[121.440852,14.261168],[121.440695,14.261639],[121.441233,14.262276],[121.441218,14.262949],[121.441121,14.263297],[121.442377,14.263884],[121.442944,14.262776],[121.442907,14.262551],[121.443198,14.262631],[121.443482,14.261943],[121.442973,14.261619],[121.442739,14.261328],[121.442934,14.260948],[121.443421,14.261099],[121.444899,14.26149],[121.444974,14.261505],[121.445946,14.261776],[121.446457,14.26197],[121.448194,14.262626],[121.447727,14.263604],[121.447158,14.264591],[121.446804,14.265413],[121.446793,14.26612],[121.446976,14.26716],[121.44718,14.269291],[121.447158,14.270487],[121.447319,14.270996],[121.447587,14.271381],[121.448907,14.271433],[121.449569,14.271375],[121.449421,14.271959],[121.449366,14.272159],[121.449345,14.272218],[121.449017,14.273174],[121.448957,14.273281],[121.44902,14.273317],[121.448999,14.273362],[121.448626,14.274217],[121.448439,14.274734],[121.448265,14.275293],[121.448098,14.275249],[121.447788,14.27643],[121.447341,14.276314],[121.447001,14.27857],[121.445611,14.278162],[121.444816,14.277483]]]}},{"type":"Feature","properties":{"osmRelationId":17317777,"osmName":"San Isidro","barangaySlug":"san-isidro"},"geometry":{"type":"Polygon","coordinates":[[[121.453425,14.277088],[121.453476,14.277397],[121.456617,14.277015],[121.457597,14.276747],[121.458067,14.27756],[121.458879,14.278556],[121.460423,14.280637],[121.461728,14.282765],[121.461217,14.283011],[121.459703,14.283069],[121.457729,14.283044],[121.457387,14.283041],[121.457325,14.282934],[121.457285,14.282373],[121.45706,14.28166],[121.45523,14.281443],[121.45477,14.281334],[121.454809,14.2812],[121.454582,14.281187],[121.45441,14.281273],[121.45358,14.280916],[121.45322,14.280457],[121.452915,14.280055],[121.452747,14.279704],[121.452278,14.279611],[121.44932,14.278993],[121.449604,14.278685],[121.449899,14.278377],[121.450045,14.278175],[121.450415,14.278091],[121.450747,14.277744],[121.451072,14.277585],[121.451098,14.277389],[121.45133,14.277012],[121.452249,14.277371],[121.45232,14.277096],[121.452968,14.277091],[121.453425,14.277088]]]}}]}